NORAD_CAT_ID,OBJECT_NAME,OBJECT_TYPE,EPOCH,MEAN_MOTION,ECCENTRICITY,INCLINATION,RA_OF_ASC_NODE,ARG_OF_PERICENTER,MEAN_ANOMALY,BSTAR,MEAN_MOTION_DOT,MEAN_MOTION_DDOT,TLE_LINE0,TLE_LINE1,TLE_LINE2,SEMIMAJOR_AXIS,PERIOD,APOGEE,PERIGEE,DECAYED
55941.0,STARLINK-5914,PAYLOAD,2024-06-07 18:37:03,14.98336805,0.0002996,70.0022,98.0528,268.5233,91.5583,0.0002291,2.642e-05,0.0,0 STARLINK-5914,1 55941U 23037AD  24159.77572937  .00002642  00000-0  22910-3 0  9998,2 55941  70.0022  98.0528 0002996 268.5233  91.5583 14.98336805 68466,6950.172,96.107,574.119,569.955,0.0
55941.0,STARLINK-5914,PAYLOAD,2024-06-07 21:49:19,14.9832846,0.0002994,70.0,97.7171,268.2173,91.8644,0.00043856,5.143e-05,0.0,0 STARLINK-5914,1 55941U 23037AD  24159.90924972  .00005143  00000-0  43856-3 0  9994,2 55941  70.0000  97.7171 0002994 268.2173  91.8644 14.98328460 68144,6950.198,96.107,574.144,569.982,0.0
55941.0,STARLINK-5914,PAYLOAD,2024-06-08 05:49:58,14.98339279,0.000281,70.0002,96.8752,267.3915,92.6922,0.00049968,5.875e-05,0.0,0 STARLINK-5914,1 55941U 23037AD  24160.24304226  .00005875  00000-0  49968-3 0  9999,2 55941  70.0002  96.8752 0002810 267.3915  92.6922 14.98339279 68195,6950.164,96.106,573.982,570.076,0.0
55941.0,STARLINK-5914,PAYLOAD,2024-06-08 21:51:20,14.9833606,0.0002739,70.0,95.1921,268.4335,91.651,-2.0366e-05,-3.36e-06,0.0,0 STARLINK-5914,1 55941U 23037AD  24160.91065618 -.00000336  00000-0 -20366-4 0  9993,2 55941  70.0000  95.1921 0002739 268.4335  91.6510 14.98336060 68299,6950.174,96.107,573.943,570.135,0.0
55941.0,STARLINK-5914,PAYLOAD,2024-06-09 04:15:52,14.98339427,0.0002866,69.9997,94.5188,271.4733,88.6098,-3.6321e-05,-5.26e-06,0.0,0 STARLINK-5914,1 55941U 23037AD  24161.17769428 -.00000526  00000-0 -36321-4 0  9991,2 55941  69.9997  94.5188 0002866 271.4733  88.6098 14.98339427 68675,6950.164,96.106,574.021,570.037,0.0
55941.0,STARLINK-5914,PAYLOAD,2024-06-09 05:52:00,14.98340907,0.0002876,69.9998,94.3506,270.7711,89.3119,-1.4946e-05,-2.71e-06,0.0,0 STARLINK-5914,1 55941U 23037AD  24161.24445254 -.00000271  00000-0 -14946-4 0  9993,2 55941  69.9998  94.3506 0002876 270.7711  89.3119 14.98340907 68348,6950.159,96.106,574.023,570.025,0.0
55941.0,STARLINK-5914,PAYLOAD,2024-06-09 21:53:21,14.98337695,0.0002793,70.0001,92.6676,270.9295,89.1544,-0.00010028,-1.29e-05,0.0,0 STARLINK-5914,1 55941U 23037AD  24161.91205324 -.00001290  00000-0 -10028-3 0  9997,2 55941  70.0001  92.6676 0002793 270.9295  89.1544 14.98337695 68443,6950.169,96.107,573.975,570.093,0.0
55941.0,STARLINK-5914,PAYLOAD,2024-06-10 04:17:53,14.98338745,0.00025,70.0013,91.9972,260.3523,99.7354,-1.7086e-05,-2.97e-06,0.0,0 STARLINK-5914,1 55941U 23037AD  24162.17908914 -.00000297  00000-0 -17086-4 0  9999,2 55941  70.0013  91.9972 0002500 260.3523  99.7354 14.98338745 68825,6950.166,96.106,573.768,570.293,0.0
55941.0,STARLINK-5914,PAYLOAD,2024-06-10 12:18:33,14.98340342,0.0002589,70.0008,91.1529,268.0674,92.0188,-0.00010906,-1.394e-05,0.0,0 STARLINK-5914,1 55941U 23037AD  24162.51288739 -.00001394  00000-0 -10906-3 0  9995,2 55941  70.0008  91.1529 0002589 268.0674  92.0188 14.98340342 68533,6950.161,96.106,573.825,570.227,0.0
55941.0,STARLINK-5914,PAYLOAD,2024-06-10 21:55:22,14.98329563,0.0002381,70.0009,90.1421,271.8791,88.2096,0.00014249,1.608e-05,0.0,0 STARLINK-5914,1 55941U 23037AD  24162.91345058  .00001608  00000-0  14249-3 0  9997,2 55941  70.0009  90.1421 0002381 271.8791  88.2096 14.98329563 68599,6950.194,96.107,573.714,570.404,0.0
55941.0,STARLINK-5914,PAYLOAD,2024-06-11 04:19:54,14.9832976,0.0002487,70.0006,89.4699,266.9377,93.1497,0.00018249,2.085e-05,0.0,0 STARLINK-5914,1 55941U 23037AD  24163.18048943  .00002085  00000-0  18249-3 0  9994,2 55941  70.0006  89.4699 0002487 266.9377  93.1497 14.98329760 68977,6950.194,96.107,573.787,570.33,0.0
55941.0,STARLINK-5914,PAYLOAD,2024-06-11 12:20:34,14.98339304,0.0002678,70.0003,88.6286,268.6249,91.4603,-2.5597e-05,-3.98e-06,0.0,0 STARLINK-5914,1 55941U 23037AD  24163.51428618 -.00000398  00000-0 -25597-4 0  9994,2 55941  70.0003  88.6286 0002678 268.6249  91.4603 14.98339304 68689,6950.164,96.106,573.89,570.168,0.0
55941.0,STARLINK-5914,PAYLOAD,2024-06-12 04:21:54,14.98338604,0.0002766,70.0003,86.9452,264.8671,95.2172,9.8915e-05,1.088e-05,0.0,0 STARLINK-5914,1 55941U 23037AD  24164.18188240  .00001088  00000-0  98915-4 0  9991,2 55941  70.0003  86.9452 0002766 264.8671  95.2172 14.98338604 69125,6950.166,96.106,573.954,570.109,0.0
55941.0,STARLINK-5914,PAYLOAD,2024-06-12 20:23:15,14.98325929,0.0002769,70.0009,85.2602,272.1574,87.9268,5.6276e-05,5.79e-06,0.0,0 STARLINK-5914,1 55941U 23037AD  24164.84949035  .00000579  00000-0  56276-4 0  9999,2 55941  70.0009  85.2602 0002769 272.1574  87.9268 14.98325929 69228,6950.205,96.107,573.995,570.146,0.0
55941.0,STARLINK-5914,PAYLOAD,2024-06-12 21:59:24,14.98326047,0.0002724,70.0005,85.093,271.7665,88.3182,2.0005e-05,1.46e-06,0.0,0 STARLINK-5914,1 55941U 23037AD  24164.91625119  .00000146  00000-0  20005-4 0  9992,2 55941  70.0005  85.0930 0002724 271.7665  88.3182 14.98326047 68897,6950.205,96.107,573.963,570.177,0.0
55941.0,STARLINK-5914,PAYLOAD,2024-06-13 12:24:36,14.98329415,0.0002638,70.0008,83.5786,272.5658,87.5199,3.346e-06,-5.3e-07,0.0,0 STARLINK-5914,1 55941U 23037AD  24165.51709017 -.00000053  00000-0  33460-5 0  9997,2 55941  70.0008  83.5786 0002638 272.5658  87.5199 14.98329415 68988,6950.195,96.107,573.893,570.226,0.0
55941.0,STARLINK-5914,PAYLOAD,2024-06-13 22:01:24,14.98331545,0.0002887,70.0005,82.5689,272.2734,87.8095,2.1471e-05,1.63e-06,0.0,0 STARLINK-5914,1 55941U 23037AD  24165.91764717  .00000163  00000-0  21471-4 0  9998,2 55941  70.0005  82.5689 0002887 272.2734  87.8095 14.98331545 69047,6950.188,96.107,574.06,570.047,0.0
55941.0,STARLINK-5914,PAYLOAD,2024-06-14 04:25:56,14.9833754,0.0002947,70.0001,81.895,268.4359,91.6462,5.9866e-05,6.22e-06,0.0,0 STARLINK-5914,1 55941U 23037AD  24166.18468169  .00000622  00000-0  59866-4 0  9999,2 55941  70.0001  81.8950 0002947 268.4359  91.6462 14.98337540 69089,6950.17,96.107,574.083,569.986,0.0
55941.0,STARLINK-5914,PAYLOAD,2024-06-14 20:27:17,14.98327791,0.0002867,70.0005,80.2114,271.7345,88.3486,0.00011984,1.337e-05,0.0,0 STARLINK-5914,1 55941U 23037AD  24166.85228586  .00001337  00000-0  11984-3 0  9992,2 55941  70.0005  80.2114 0002867 271.7345  88.3486 14.98327791 69188,6950.2,96.107,574.057,570.072,0.0
55941.0,STARLINK-5914,PAYLOAD,2024-06-15 04:27:57,14.98332208,0.0002834,70.0006,79.3713,268.0251,92.0583,0.00011975,1.336e-05,0.0,0 STARLINK-5914,1 55941U 23037AD  24167.18608325  .00001336  00000-0  11975-3 0  9991,2 55941  70.0006  79.3713 0002834 268.0251  92.0583 14.98332208 69237,6950.186,96.107,574.021,570.081,0.0
55941.0,STARLINK-5914,PAYLOAD,2024-06-15 22:05:26,14.98327794,0.0002836,70.0009,77.5202,269.1729,90.9105,8.4322e-05,9.13e-06,0.0,0 STARLINK-5914,1 55941U 23037AD  24167.92044675  .00000913  00000-0  84322-4 0  9992,2 55941  70.0009  77.5202 0002836 269.1729  90.9105 14.98327794 69340,6950.2,96.107,574.036,570.094,0.0
55941.0,STARLINK-5914,PAYLOAD,2024-06-16 10:54:30,14.98333097,0.0002662,70.0011,76.172,270.7518,89.3336,-1.4707e-05,-2.68e-06,0.0,0 STARLINK-5914,1 55941U 23037AD  24168.45452458 -.00000268  00000-0 -14707-4 0  9998,2 55941  70.0011  76.1720 0002662 270.7518  89.3336 14.98333097 69424,6950.183,96.107,573.898,570.198,0.0
55941.0,STARLINK-5914,PAYLOAD,2024-06-16 22:07:27,14.98328756,0.0002629,70.0007,74.9955,265.6545,94.4313,-3.9786e-06,-1.4e-06,0.0,0 STARLINK-5914,1 55941U 23037AD  24168.92184676 -.00000140  00000-0 -39786-5 0  9998,2 55941  70.0007  74.9955 0002629 265.6545  94.4313 14.98328756 69496,6950.197,96.107,573.889,570.235,0.0
55941.0,STARLINK-5914,PAYLOAD,2024-06-17 20:33:20,14.98344138,0.0002815,70.0003,72.6379,269.4172,90.6665,-0.00023901,-2.945e-05,0.0,0 STARLINK-5914,1 55941U 23037AD  24169.85648438 -.00002945  00000-0 -23901-3 0  9997,2 55941  70.0003  72.6379 0002815 269.4172  90.6665 14.98344138 69975,6950.149,96.106,573.971,570.058,0.0
55941.0,STARLINK-5914,PAYLOAD,2024-06-17 22:09:28,14.98327641,0.0002762,70.0003,72.4695,268.3547,91.7296,3.184e-05,2.87e-06,0.0,0 STARLINK-5914,1 55941U 23037AD  24169.92324728  .00000287  00000-0  31840-4 0  9995,2 55941  70.0003  72.4695 0002762 268.3547  91.7296 14.98327641 69645,6950.2,96.107,573.985,570.146,0.0
55941.0,STARLINK-5914,PAYLOAD,2024-06-18 10:58:32,14.98332663,0.0003076,69.9997,71.1219,270.809,89.2717,-3.9811e-05,-5.68e-06,0.0,0 STARLINK-5914,1 55941U 23037AD  24170.45732549 -.00000568  00000-0 -39811-4 0  9999,2 55941  69.9997  71.1219 0003076 270.8090  89.2717 14.98332663 70060,6950.185,96.107,574.188,569.912,0.0
55941.0,STARLINK-5914,PAYLOAD,2024-06-18 20:35:21,14.98325785,0.0003015,69.9998,70.1118,268.9731,91.1082,8.0704e-05,8.7e-06,0.0,0 STARLINK-5914,1 55941U 23037AD  24170.85788738  .00000870  00000-0  80704-4 0  9995,2 55941  69.9998  70.1118 0003015 268.9731  91.1082 14.98325785 69782,6950.206,96.107,574.166,569.975,0.0
55941.0,STARLINK-5914,PAYLOAD,2024-06-19 11:00:34,14.98320548,0.000293,69.9999,68.5968,261.1346,98.9481,0.00021074,2.422e-05,0.0,0 STARLINK-5914,1 55941U 23037AD  24171.45872795  .00002422  00000-0  21074-3 0  9998,2 55941  69.9999  68.5968 0002930 261.1346  98.9481 14.98320548 70219,6950.222,96.108,574.124,570.051,0.0
55941.0,STARLINK-5914,PAYLOAD,2024-06-19 22:13:30,14.98324812,0.0002959,70.0,67.4187,269.2869,90.7951,-2.7972e-05,-4.27e-06,0.0,0 STARLINK-5914,1 55941U 23037AD  24171.92605214 -.00000427  00000-0 -27972-4 0  9999,2 55941  70.0000  67.4187 0002959 269.2869  90.7951 14.98324812 69944,6950.209,96.107,574.131,570.017,0.0
55941.0,STARLINK-5914,PAYLOAD,2024-06-20 03:01:55,14.98324948,0.0002996,70.0002,66.9138,268.1741,91.9075,-7.3812e-06,-1.81e-06,0.0,0 STARLINK-5914,1 55941U 23037AD  24172.12633221 -.00000181  00000-0 -73812-5 0  9993,2 55941  70.0002  66.9138 0002996 268.1741  91.9075 14.98324948 69977,6950.209,96.107,574.156,569.991,0.0
